{"type": "FeatureCollection", "features": [ {"type": "Feature", "properties": {"norad_id": 29782, "name": "FENGYUN 1C DEB", "group": "fengyun-1c-debris", "lat": -47.42866958372069, "lon": 42.51804383305833, "alt_km": 858.708337596282, "timestamp": "2025-12-04T23:34:05.993829+00:00", "meta": {"OBJECT_NAME": "FENGYUN 1C DEB", "OBJECT_ID": "1999-025BY", "EPOCH": "2025-12-04T15:50:36.368160", "MEAN_MOTION": 14.11601317, "ECCENTRICITY": 0.0055086, "INCLINATION": 99.1009, "RA_OF_ASC_NODE": 32.1427, "ARG_OF_PERICENTER": 225.2176, "MEAN_ANOMALY": 251.2355, "EPHEMERIS_TYPE": 0, "CLASSIFICATION_TYPE": "U", "NORAD_CAT_ID": 29782, "ELEMENT_SET_NO": 999, "REV_AT_EPOCH": 96557, "BSTAR": 0.0027931, "MEAN_MOTION_DOT": 5.105e-05, "MEAN_MOTION_DDOT": 0}, "tle": {"line1": "1 29782U 99025BY  25338.66014315  .00005105  00000+0  27931-2 0  9994", "line2": "2 29782  99.1009  32.1427 0055086 225.2176 251.2355 14.11601317965576"}}, "geometry": {"type": "Point", "coordinates": [42.51804383305833, -47.42866958372069]}}, {"type": "Feature", "properties": {"norad_id": 29784, "name": "FENGYUN 1C DEB", "group": "fengyun-1c-debris", "lat": -62.882429203868384, "lon": -84.53015583015092, "alt_km": 757.9418455435907, "timestamp": "2025-12-04T23:34:05.993841+00:00", "meta": {"OBJECT_NAME": "FENGYUN 1C DEB", "OBJECT_ID": "1999-025CA", "EPOCH": "2025-12-04T14:21:44.254368", "MEAN_MOTION": 14.30544949, "ECCENTRICITY": 0.005987, "INCLINATION": 98.9448, "RA_OF_ASC_NODE": 257.1641, "ARG_OF_PERICENTER": 321.3417, "MEAN_ANOMALY": 160.3684, "EPHEMERIS_TYPE": 0, "CLASSIFICATION_TYPE": "U", "NORAD_CAT_ID": 29784, "ELEMENT_SET_NO": 999, "REV_AT_EPOCH": 98243, "BSTAR": 0.0012704, "MEAN_MOTION_DOT": 3.332e-05, "MEAN_MOTION_DDOT": 0}, "tle": {"line1": "1 29784U 99025CA  25338.59842887  .00003332  00000+0  12704-2 0  9993", "line2": "2 29784  98.9448 257.1641 0059870 321.3417 160.3684 14.30544949982437"}}, "geometry": {"type": "Point", "coordinates": [-84.53015583015092, -62.882429203868384]}}, {"type": "Feature", "properties": {"norad_id": 29786, "name": "FENGYUN 1C DEB", "group": "fengyun-1c-debris", "lat": 63.372440855961095, "lon": -165.70465269209268, "alt_km": 904.6548175536645, "timestamp": "2025-12-04T23:34:05.993851+00:00", "meta": {"OBJECT_NAME": "FENGYUN 1C DEB", "OBJECT_ID": "1999-025CC", "EPOCH": "2025-12-04T13:24:58.394016", "MEAN_MOTION": 14.09076555, "ECCENTRICITY": 0.0077257, "INCLINATION": 98.7361, "RA_OF_ASC_NODE": 356.0254, "ARG_OF_PERICENTER": 326.4149, "MEAN_ANOMALY": 163.7766, "EPHEMERIS_TYPE": 0, "CLASSIFICATION_TYPE": "U", "NORAD_CAT_ID": 29786, "ELEMENT_SET_NO": 999, "REV_AT_EPOCH": 97045, "BSTAR": 0.00030647, "MEAN_MOTION_DOT": 5.03e-06, "MEAN_MOTION_DDOT": 0}, "tle": {"line1": "1 29786U 99025CC  25338.55900919  .00000503  00000+0  30647-3 0  9996", "line2": "2 29786  98.7361 356.0254 0077257 326.4149 163.7766 14.09076555970453"}}, "geometry": {"type": "Point", "coordinates": [-165.70465269209268, 63.372440855961095]}}, {"type": "Feature", "properties": {"norad_id": 29788, "name": "FENGYUN 1C DEB", "group": "fengyun-1c-debris", "lat": -59.25260402103337, "lon": 65.6559917220049, "alt_km": 811.9112099397244, "timestamp": "2025-12-04T23:34:05.993861+00:00", "meta": {"OBJECT_NAME": "FENGYUN 1C DEB", "OBJECT_ID": "1999-025CE", "EPOCH": "2025-12-04T16:09:08.026848", "MEAN_MOTION": 14.2587615, "ECCENTRICITY": 0.0042836, "INCLINATION": 98.7854, "RA_OF_ASC_NODE": 50.2784, "ARG_OF_PERICENTER": 211.6178, "MEAN_ANOMALY": 302.2644, "EPHEMERIS_TYPE": 0, "CLASSIFICATION_TYPE": "U", "NORAD_CAT_ID": 29788, "ELEMENT_SET_NO": 999, "REV_AT_EPOCH": 97240, "BSTAR": 0.0039238, "MEAN_MOTION_DOT": 9.398e-05, "MEAN_MOTION_DDOT": 0}, "tle": {"line1": "1 29788U 99025CE  25338.67300957  .00009398  00000+0  39238-2 0  9992", "line2": "2 29788  98.7854  50.2784 0042836 211.6178 302.2644 14.25876150972404"}}, "geometry": {"type": "Point", "coordinates": [65.6559917220049, -59.25260402103337]}}, {"type": "Feature", "properties": {"norad_id": 29789, "name": "FENGYUN 1C DEB", "group": "fengyun-1c-debris", "lat": -73.62296457254394, "lon": -163.3668009828525, "alt_km": 849.235640820998, "timestamp": "2025-12-04T23:34:05.993872+00:00", "meta": {"OBJECT_NAME": "FENGYUN 1C DEB", "OBJECT_ID": "1999-025CF", "EPOCH": "2025-12-02T18:48:53.557344", "MEAN_MOTION": 13.54203296, "ECCENTRICITY": 0.02983938, "INCLINATION": 99.4521, "RA_OF_ASC_NODE": 159.9992, "ARG_OF_PERICENTER": 303.918, "MEAN_ANOMALY": 70.0924, "EPHEMERIS_TYPE": 0, "CLASSIFICATION_TYPE": "U", "NORAD_CAT_ID": 29789, "ELEMENT_SET_NO": 999, "REV_AT_EPOCH": 92853, "BSTAR": 0.001621275, "MEAN_MOTION_DOT": 1.419e-05, "MEAN_MOTION_DDOT": 0}, "tle": {"line1": "1 29789U 99025CF  25336.78395321  .00001419  00000+0  16213-2 0  9996", "line2": "2 29789  99.4521 159.9992 0298393 303.9180  70.0924 13.54203296928533"}}, "geometry": {"type": "Point", "coordinates": [-163.3668009828525, -73.62296457254394]}}, {"type": "Feature", "properties": {"norad_id": 29790, "name": "FENGYUN 1C DEB", "group": "fengyun-1c-debris", "lat": 36.12699113192356, "lon": -34.16765897420949, "alt_km": 833.6011293682686, "timestamp": "2025-12-04T23:34:05.993882+00:00", "meta": {"OBJECT_NAME": "FENGYUN 1C DEB", "OBJECT_ID": "1999-025CG", "EPOCH": "2025-12-04T13:20:06.974592", "MEAN_MOTION": 14.32249328, "ECCENTRICITY": 0.0076153, "INCLINATION": 99.147, "RA_OF_ASC_NODE": 332.1369, "ARG_OF_PERICENTER": 200.3312, "MEAN_ANOMALY": 159.4833, "EPHEMERIS_TYPE": 0, "CLASSIFICATION_TYPE": "U", "NORAD_CAT_ID": 29790, "ELEMENT_SET_NO": 999, "REV_AT_EPOCH": 98408, "BSTAR": 0.00053421, "MEAN_MOTION_DOT": 1.439e-05, "MEAN_MOTION_DDOT": 0}, "tle": {"line1": "1 29790U 99025CG  25338.55563628  .00001439  00000+0  53421-3 0  9997", "line2": "2 29790  99.1470 332.1369 0076153 200.3312 159.4833 14.32249328984089"}}, "geometry": {"type": "Point", "coordinates": [-34.16765897420949, 36.12699113192356]}}, {"type": "Feature", "properties": {"norad_id": 29791, "name": "FENGYUN 1C DEB", "group": "fengyun-1c-debris", "lat": -35.49587575481605, "lon": -14.623135788358807, "alt_km": 720.6270584378672, "timestamp": "2025-12-04T23:34:05.993892+00:00", "meta": {"OBJECT_NAME": "FENGYUN 1C DEB", "OBJECT_ID": "1999-025CH", "EPOCH": "2025-12-04T14:23:04.431840", "MEAN_MOTION": 14.58067338, "ECCENTRICITY": 0.0041672, "INCLINATION": 99.0354, "RA_OF_ASC_NODE": 338.4453, "ARG_OF_PERICENTER": 86.0132, "MEAN_ANOMALY": 31.0579, "EPHEMERIS_TYPE": 0, "CLASSIFICATION_TYPE": "U", "NORAD_CAT_ID": 29791, "ELEMENT_SET_NO": 999, "REV_AT_EPOCH": 98727, "BSTAR": 0.0037426, "MEAN_MOTION_DOT": 0.00017414, "MEAN_MOTION_DDOT": 0}, "tle": {"line1": "1 29791U 99025CH  25338.59935685  .00017414  00000+0  37426-2 0  9994", "line2": "2 29791  99.0354 338.4453 0041672  86.0132  31.0579 14.58067338987273"}}, "geometry": {"type": "Point", "coordinates": [-14.623135788358807, -35.49587575481605]}}, {"type": "Feature", "properties": {"norad_id": 29792, "name": "FENGYUN 1C DEB", "group": "fengyun-1c-debris", "lat": 72.06715478467702, "lon": -121.86402972893612, "alt_km": 810.9644785105666, "timestamp": "2025-12-04T23:34:05.993903+00:00", "meta": {"OBJECT_NAME": "FENGYUN 1C DEB", "OBJECT_ID": "1999-025CJ", "EPOCH": "2025-12-04T16:17:13.619040", "MEAN_MOTION": 14.15096201, "ECCENTRICITY": 0.0048468, "INCLINATION": 98.7582, "RA_OF_ASC_NODE": 29.3908, "ARG_OF_PERICENTER": 59.729, "MEAN_ANOMALY": 300.8668, "EPHEMERIS_TYPE": 0, "CLASSIFICATION_TYPE": "U", "NORAD_CAT_ID": 29792, "ELEMENT_SET_NO": 999, "REV_AT_EPOCH": 96825, "BSTAR": 0.0024414, "MEAN_MOTION_DOT": 4.747e-05, "MEAN_MOTION_DDOT": 0}, "tle": {"line1": "1 29792U 99025CJ  25338.67862985  .00004747  00000+0  24414-2 0  9994", "line2": "2 29792  98.7582  29.3908 0048468  59.7290 300.8668 14.15096201968253"}}, "geometry": {"type": "Point", "coordinates": [-121.86402972893612, 72.06715478467702]}}, {"type": "Feature", "properties": {"norad_id": 29793, "name": "FENGYUN 1C DEB", "group": "fengyun-1c-debris", "lat": 60.18267169485049, "lon": -6.730374089152541, "alt_km": 932.9833028288231, "timestamp": "2025-12-04T23:34:05.993914+00:00", "meta": {"OBJECT_NAME": "FENGYUN 1C DEB", "OBJECT_ID": "1999-025CK", "EPOCH": "2025-12-04T11:15:54.894240", "MEAN_MOTION": 14.01040914, "ECCENTRICITY": 0.0144109, "INCLINATION": 98.3558, "RA_OF_ASC_NODE": 157.941, "ARG_OF_PERICENTER": 1.7097, "MEAN_ANOMALY": 51.3801, "EPHEMERIS_TYPE": 0, "CLASSIFICATION_TYPE": "U", "NORAD_CAT_ID": 29793, "ELEMENT_SET_NO": 999, "REV_AT_EPOCH": 96033, "BSTAR": 0.0015286, "MEAN_MOTION_DOT": 2.469e-05, "MEAN_MOTION_DDOT": 0}, "tle": {"line1": "1 29793U 99025CK  25338.46938535  .00002469  00000+0  15286-2 0  9993", "line2": "2 29793  98.3558 157.9410 0144109   1.7097  51.3801 14.01040914960333"}}, "geometry": {"type": "Point", "coordinates": [-6.730374089152541, 60.18267169485049]}}, {"type": "Feature", "properties": {"norad_id": 29794, "name": "FENGYUN 1C DEB", "group": "fengyun-1c-debris", "lat": -26.33142107481366, "lon": -45.78338805789002, "alt_km": 959.9020630818641, "timestamp": "2025-12-04T23:34:05.993924+00:00", "meta": {"OBJECT_NAME": "FENGYUN 1C DEB", "OBJECT_ID": "1999-025CL", "EPOCH": "2025-12-04T09:15:42.127200", "MEAN_MOTION": 14.0897233, "ECCENTRICITY": 0.0157442, "INCLINATION": 98.1996, "RA_OF_ASC_NODE": 137.7659, "ARG_OF_PERICENTER": 64.4256, "MEAN_ANOMALY": 359.0771, "EPHEMERIS_TYPE": 0, "CLASSIFICATION_TYPE": "U", "NORAD_CAT_ID": 29794, "ELEMENT_SET_NO": 999, "REV_AT_EPOCH": 96730, "BSTAR": 0.0010216, "MEAN_MOTION_DOT": 1.946e-05, "MEAN_MOTION_DDOT": 0}, "tle": {"line1": "1 29794U 99025CL  25338.38590425  .00001946  00000+0  10216-2 0  9994", "line2": "2 29794  98.1996 137.7659 0157442  64.4256 359.0771 14.08972330967307"}}, "geometry": {"type": "Point", "coordinates": [-45.78338805789002, -26.33142107481366]}}]}